[{"OBJECT_NAME":"GPS BIIR-2  (PRN 13)","OBJECT_ID":"1997-035A","EPOCH":"2022-08-19T04:24:12.738528","MEAN_MOTION":2.00563106,"ECCENTRICITY":0.006117,"INCLINATION":55.5175,"RA_OF_ASC_NODE":153.227,"ARG_OF_PERICENTER":51.7206,"MEAN_ANOMALY":308.8357,"EPHEMERIS_TYPE":0,"CLASSIFICATION_TYPE":"U","NORAD_CAT_ID":24876,"ELEMENT_SET_NO":999,"REV_AT_EPOCH":18391,"BSTAR":0,"MEAN_MOTION_DOT":-2.1e-7,"MEAN_MOTION_DDOT":0},{"OBJECT_NAME":"GPS BIIR-4  (PRN 20)","OBJECT_ID":"2000-025A","EPOCH":"2022-08-19T05:28:13.445760","MEAN_MOTION":2.00567852,"ECCENTRICITY":0.0047794,"INCLINATION":54.1092,"RA_OF_ASC_NODE":76.273,"ARG_OF_PERICENTER":184.5031,"MEAN_ANOMALY":298.3225,"EPHEMERIS_TYPE":0,"CLASSIFICATION_TYPE":"U","NORAD_CAT_ID":26360,"ELEMENT_SET_NO":999,"REV_AT_EPOCH":16323,"BSTAR":0,"MEAN_MOTION_DOT":-5.9e-7,"MEAN_MOTION_DDOT":0},{"OBJECT_NAME":"GPS BIIR-6  (PRN 22)","OBJECT_ID":"2000-071A","EPOCH":"2022-08-19T04:25:21.818784","MEAN_MOTION":2.0055699,"ECCENTRICITY":0.0136689,"INCLINATION":55.1018,"RA_OF_ASC_NODE":150.1927,"ARG_OF_PERICENTER":254.5877,"MEAN_ANOMALY":323.51,"EPHEMERIS_TYPE":0,"CLASSIFICATION_TYPE":"U","NORAD_CAT_ID":26605,"ELEMENT_SET_NO":999,"REV_AT_EPOCH":15947,"BSTAR":0,"MEAN_MOTION_DOT":-2.5e-7,"MEAN_MOTION_DDOT":0},{"OBJECT_NAME":"GPS BIIR-8  (PRN 16)","OBJECT_ID":"2003-005A","EPOCH":"2022-08-19T02:23:11.105376","MEAN_MOTION":2.0056099,"ECCENTRICITY":0.0125501,"INCLINATION":55.4708,"RA_OF_ASC_NODE":270.5726,"ARG_OF_PERICENTER":41.1079,"MEAN_ANOMALY":327.2392,"EPHEMERIS_TYPE":0,"CLASSIFICATION_TYPE":"U","NORAD_CAT_ID":27663,"ELEMENT_SET_NO":999,"REV_AT_EPOCH":14327,"BSTAR":0,"MEAN_MOTION_DOT":1.1e-7,"MEAN_MOTION_DDOT":0},{"OBJECT_NAME":"GPS BIIR-9  (PRN 21)","OBJECT_ID":"2003-010A","EPOCH":"2022-08-19T07:24:03.847968","MEAN_MOTION":2.00559128,"ECCENTRICITY":0.0244332,"INCLINATION":55.0473,"RA_OF_ASC_NODE":20.7638,"ARG_OF_PERICENTER":307.64,"MEAN_ANOMALY":67.0449,"EPHEMERIS_TYPE":0,"CLASSIFICATION_TYPE":"U","NORAD_CAT_ID":27704,"ELEMENT_SET_NO":999,"REV_AT_EPOCH":14207,"BSTAR":0,"MEAN_MOTION_DOT":-9.3e-7,"MEAN_MOTION_DDOT":0},{"OBJECT_NAME":"GPS BIIR-11 (PRN 19)","OBJECT_ID":"2004-009A","EPOCH":"2022-08-19T11:33:47.388672","MEAN_MOTION":2.00559218,"ECCENTRICITY":0.0090201,"INCLINATION":55.9643,"RA_OF_ASC_NODE":331.5572,"ARG_OF_PERICENTER":124.0843,"MEAN_ANOMALY":315.2046,"EPHEMERIS_TYPE":0,"CLASSIFICATION_TYPE":"U","NORAD_CAT_ID":28190,"ELEMENT_SET_NO":999,"REV_AT_EPOCH":13491,"BSTAR":0,"MEAN_MOTION_DOT":-1.06e-6,"MEAN_MOTION_DDOT":0},{"OBJECT_NAME":"GPS BIIR-13 (PRN 02)","OBJECT_ID":"2004-045A","EPOCH":"2022-08-19T12:18:31.087584","MEAN_MOTION":2.00422929,"ECCENTRICITY":0.0201675,"INCLINATION":55.3735,"RA_OF_ASC_NODE":20.9174,"ARG_OF_PERICENTER":279.6794,"MEAN_ANOMALY":74.5641,"EPHEMERIS_TYPE":0,"CLASSIFICATION_TYPE":"U","NORAD_CAT_ID":28474,"ELEMENT_SET_NO":999,"REV_AT_EPOCH":13039,"BSTAR":0,"MEAN_MOTION_DOT":-9.2e-7,"MEAN_MOTION_DDOT":0},{"OBJECT_NAME":"CRE (WAAS\/PRN 138)","OBJECT_ID":"2005-036A","EPOCH":"2022-08-19T12:58:41.319264","MEAN_MOTION":1.00272274,"ECCENTRICITY":0.0002542,"INCLINATION":0.7156,"RA_OF_ASC_NODE":93.2434,"ARG_OF_PERICENTER":36.3148,"MEAN_ANOMALY":285.6533,"EPHEMERIS_TYPE":0,"CLASSIFICATION_TYPE":"U","NORAD_CAT_ID":28868,"ELEMENT_SET_NO":999,"REV_AT_EPOCH":3243,"BSTAR":0,"MEAN_MOTION_DOT":-8.0e-7,"MEAN_MOTION_DDOT":0},{"OBJECT_NAME":"GPS BIIRM-1 (PRN 17)","OBJECT_ID":"2005-038A","EPOCH":"2022-08-19T08:40:39.686880","MEAN_MOTION":2.00572538,"ECCENTRICITY":0.0138757,"INCLINATION":56.0278,"RA_OF_ASC_NODE":328.9992,"ARG_OF_PERICENTER":274.7315,"MEAN_ANOMALY":103.1276,"EPHEMERIS_TYPE":0,"CLASSIFICATION_TYPE":"U","NORAD_CAT_ID":28874,"ELEMENT_SET_NO":999,"REV_AT_EPOCH":12380,"BSTAR":0,"MEAN_MOTION_DOT":-1.04e-6,"MEAN_MOTION_DDOT":0},{"OBJECT_NAME":"IOR-W (EGNOS\/PRN 126)","OBJECT_ID":"2005-044A","EPOCH":"2022-08-19T02:01:10.020864","MEAN_MOTION":1.00273973,"ECCENTRICITY":0.0002919,"INCLINATION":3.5473,"RA_OF_ASC_NODE":37.9136,"ARG_OF_PERICENTER":123.8101,"MEAN_ANOMALY":259.8842,"EPHEMERIS_TYPE":0,"CLASSIFICATION_TYPE":"U","NORAD_CAT_ID":28899,"ELEMENT_SET_NO":999,"REV_AT_EPOCH":6150,"BSTAR":0,"MEAN_MOTION_DOT":3.0e-8,"MEAN_MOTION_DDOT":0},{"OBJECT_NAME":"GPS BIIRM-2 (PRN 31)","OBJECT_ID":"2006-042A","EPOCH":"2022-08-19T00:22:23.450880","MEAN_MOTION":2.00576085,"ECCENTRICITY":0.010363,"INCLINATION":54.7122,"RA_OF_ASC_NODE":206.7866,"ARG_OF_PERICENTER":22.4415,"MEAN_ANOMALY":18.0215,"EPHEMERIS_TYPE":0,"CLASSIFICATION_TYPE":"U","NORAD_CAT_ID":29486,"ELEMENT_SET_NO":999,"REV_AT_EPOCH":11635,"BSTAR":0,"MEAN_MOTION_DOT":6.0e-7,"MEAN_MOTION_DDOT":0},{"OBJECT_NAME":"GPS BIIRM-3 (PRN 12)","OBJECT_ID":"2006-052A","EPOCH":"2022-08-18T09:38:59.261856","MEAN_MOTION":2.00554542,"ECCENTRICITY":0.0082647,"INCLINATION":55.4799,"RA_OF_ASC_NODE":269.5408,"ARG_OF_PERICENTER":74.9882,"MEAN_ANOMALY":285.9855,"EPHEMERIS_TYPE":0,"CLASSIFICATION_TYPE":"U","NORAD_CAT_ID":29601,"ELEMENT_SET_NO":999,"REV_AT_EPOCH":11535,"BSTAR":0,"MEAN_MOTION_DOT":6.0e-8,"MEAN_MOTION_DDOT":0},{"OBJECT_NAME":"GPS BIIRM-4 (PRN 15)","OBJECT_ID":"2007-047A","EPOCH":"2022-08-19T05:03:00.027936","MEAN_MOTION":2.00571257,"ECCENTRICITY":0.0142229,"INCLINATION":53.3288,"RA_OF_ASC_NODE":137.9435,"ARG_OF_PERICENTER":63.7888,"MEAN_ANOMALY":297.6958,"EPHEMERIS_TYPE":0,"CLASSIFICATION_TYPE":"U","NORAD_CAT_ID":32260,"ELEMENT_SET_NO":999,"REV_AT_EPOCH":10877,"BSTAR":0,"MEAN_MOTION_DOT":-4.1e-7,"MEAN_MOTION_DDOT":0},{"OBJECT_NAME":"COSMOS 2433 (720)","OBJECT_ID":"2007-052A","EPOCH":"2022-08-19T11:22:53.944608","MEAN_MOTION":2.13104164,"ECCENTRICITY":0.0002554,"INCLINATION":66.081,"RA_OF_ASC_NODE":2.5799,"ARG_OF_PERICENTER":190.6626,"MEAN_ANOMALY":177.5957,"EPHEMERIS_TYPE":0,"CLASSIFICATION_TYPE":"U","NORAD_CAT_ID":32275,"ELEMENT_SET_NO":999,"REV_AT_EPOCH":11531,"BSTAR":0,"MEAN_MOTION_DOT":-8.2e-7,"MEAN_MOTION_DDOT":0},{"OBJECT_NAME":"COSMOS 2432 (719)","OBJECT_ID":"2007-052B","EPOCH":"2022-08-19T12:35:27.769344","MEAN_MOTION":2.1310337,"ECCENTRICITY":0.0007686,"INCLINATION":66.0954,"RA_OF_ASC_NODE":2.6799,"ARG_OF_PERICENTER":334.4475,"MEAN_ANOMALY":20.627,"EPHEMERIS_TYPE":0,"CLASSIFICATION_TYPE":"U","NORAD_CAT_ID":32276,"ELEMENT_SET_NO":999,"REV_AT_EPOCH":11530,"BSTAR":0,"MEAN_MOTION_DOT":-8.2e-7,"MEAN_MOTION_DDOT":0},{"OBJECT_NAME":"GPS BIIRM-5 (PRN 29)","OBJECT_ID":"2007-062A","EPOCH":"2022-08-19T12:40:55.668576","MEAN_MOTION":2.00565816,"ECCENTRICITY":0.0021077,"INCLINATION":56.1487,"RA_OF_ASC_NODE":329.7619,"ARG_OF_PERICENTER":143.0247,"MEAN_ANOMALY":215.4164,"EPHEMERIS_TYPE":0,"CLASSIFICATION_TYPE":"U","NORAD_CAT_ID":32384,"ELEMENT_SET_NO":999,"REV_AT_EPOCH":10747,"BSTAR":0,"MEAN_MOTION_DOT":-1.04e-6,"MEAN_MOTION_DDOT":0},{"OBJECT_NAME":"COSMOS 2434 (721)","OBJECT_ID":"2007-065A","EPOCH":"2022-08-19T03:50:04.630848","MEAN_MOTION":2.13103128,"ECCENTRICITY":7.15e-5,"INCLINATION":64.3765,"RA_OF_ASC_NODE":239.2851,"ARG_OF_PERICENTER":174.3284,"MEAN_ANOMALY":202.4747,"EPHEMERIS_TYPE":0,"CLASSIFICATION_TYPE":"U","NORAD_CAT_ID":32393,"ELEMENT_SET_NO":999,"REV_AT_EPOCH":11401,"BSTAR":0,"MEAN_MOTION_DOT":8.0e-7,"MEAN_MOTION_DDOT":0}]