NAVSTAR 43 (USA 132)    
1 24876U 97035A   22231.18348077 -.00000021  00000+0  00000+0 0  9991
2 24876  55.5175 153.2270 0061170  51.7206 308.8357  2.00563106183912
NAVSTAR 47 (USA 150)    
1 26360U 00025A   22231.22793340 -.00000059  00000+0  00000+0 0  9997
2 26360  54.1092  76.2730 0047794 184.5031 298.3225  2.00567852163239
NAVSTAR 49 (USA 154)    
1 26605U 00071A   22231.18428031 -.00000025  00000+0  00000+0 0  9990
2 26605  55.1018 150.1927 0136689 254.5877 323.5100  2.00556990159473
NAVSTAR 51 (USA 166)    
1 27663U 03005A   22231.09943409  .00000011  00000+0  00000+0 0  9990
2 27663  55.4708 270.5726 0125501  41.1079 327.2392  2.00560990143276
NAVSTAR 52 (USA 168)    
1 27704U 03010A   22231.30837787 -.00000093  00000+0  00000+0 0  9998
2 27704  55.0473  20.7638 0244332 307.6400  67.0449  2.00559128142076
NAVSTAR 54 (USA 177)    
1 28190U 04009A   22231.48179848 -.00000106  00000+0  00000+0 0  9998
2 28190  55.9643 331.5572 0090201 124.0843 315.2046  2.00559218134915
NAVSTAR 56 (USA 180)    
1 28474U 04045A   22231.51285981 -.00000092  00000+0  00000+0 0  9997
2 28474  55.3735  20.9174 0201675 279.6794  74.5641  2.00422929130396
ANIK F1R                
1 28868U 05036A   22231.54075601 -.00000080  00000+0  00000+0 0  9991
2 28868   0.7156  93.2434 0002542  36.3148 285.6533  1.00272274 32435
NAVSTAR 57 (USA 183)    
1 28874U 05038A   22231.36157045 -.00000104  00000+0  00000+0 0  9990
2 28874  56.0278 328.9992 0138757 274.7315 103.1276  2.00572538123807
INMARSAT 4-F2           
1 28899U 05044A   22231.08414376  .00000003  00000+0  00000+0 0  9993
2 28899   3.5473  37.9136 0002919 123.8101 259.8842  1.00273973 61508
NAVSTAR 58 (USA 190)    
1 29486U 06042A   22231.01554920  .00000060  00000+0  00000+0 0  9991
2 29486  54.7122 206.7866 0103630  22.4415  18.0215  2.00576085116354
NAVSTAR 59 (USA 192)    
1 29601U 06052A   22230.40207479  .00000006  00000+0  00000+0 0  9997
2 29601  55.4799 269.5408 0082647  74.9882 285.9855  2.00554542115352
NAVSTAR 60 (USA 196)    
1 32260U 07047A   22231.21041699 -.00000041  00000+0  00000+0 0  9997
2 32260  53.3288 137.9435 0142229  63.7888 297.6958  2.00571257108774
COSMOS 2433 [GLONASS-M] 
1 32275U 07052A   22231.47423547 -.00000082  00000+0  00000+0 0  9998
2 32275  66.0810   2.5799 0002554 190.6626 177.5957  2.13104164115314
COSMOS 2432 [GLONASS-M] 
1 32276U 07052B   22231.52462696 -.00000082  00000+0  00000+0 0  9993
2 32276  66.0954   2.6799 0007686 334.4475  20.6270  2.13103370115309
NAVSTAR 61 (USA 199)    
1 32384U 07062A   22231.52842209 -.00000104  00000+0  00000+0 0  9991
2 32384  56.1487 329.7619 0021077 143.0247 215.4164  2.00565816107473
COSMOS 2434 [GLONASS-M] 
1 32393U 07065A   22231.15977582  .00000080  00000+0  00000+0 0  9998
2 32393  64.3765 239.2851 0000715 174.3284 202.4747  2.13103128114019
